{
  "type": "FeatureCollection",
  "features": [
    {
      "type": "Feature",
      "properties": {
        "norad_id": 36390,
        "name": "IRIDIUM 33 DEB",
        "group": "iridium-33-debris",
        "lat": 34.86067958273108,
        "lon": 110.90173864454356,
        "alt_km": 626.3376874721116,
        "timestamp": "2025-12-25T14:48:25.158407+00:00",
        "meta_object_name": "IRIDIUM 33 DEB",
        "meta_object_id": "1997-051VU",
        "meta_epoch": "2025-12-25T02:44:48.274368",
        "meta_mean_motion": 14.737665,
        "meta_eccentricity": 0.00323952,
        "meta_inclination": 86.292,
        "meta_ra_of_asc_node": 293.7212,
        "meta_arg_of_pericenter": 120.9212,
        "meta_mean_anomaly": 239.5197,
        "meta_ephemeris_type": 0,
        "meta_classification_type": "U",
        "meta_norad_cat_id": 36390,
        "meta_element_set_no": 999,
        "meta_rev_at_epoch": 66444,
        "meta_bstar": 0.0011373598,
        "meta_mean_motion_dot": 7.522e-05,
        "meta_mean_motion_ddot": 0,
        "tle_line1": "1 36390U 97051VU  25359.11444762  .00007522  00000+0  11374-2 0  9999",
        "tle_line2": "2 36390  86.2920 293.7212 0032395 120.9212 239.5197 14.73766500664444"
      },
      "geometry": {
        "type": "Point",
        "coordinates": [
          110.90173864454356,
          34.86067958273108
        ]
      }
    },
    {
      "type": "Feature",
      "properties": {
        "norad_id": 36483,
        "name": "IRIDIUM 33 DEB",
        "group": "iridium-33-debris",
        "lat": -79.13311176937727,
        "lon": 27.711474683163285,
        "alt_km": 754.6388139730843,
        "timestamp": "2025-12-25T14:48:25.158416+00:00",
        "meta_object_name": "IRIDIUM 33 DEB",
        "meta_object_id": "1997-051VZ",
        "meta_epoch": "2025-12-24T20:54:18.257760",
        "meta_mean_motion": 14.45850229,
        "meta_eccentricity": 0.0011373,
        "meta_inclination": 86.3782,
        "meta_ra_of_asc_node": 47.2957,
        "meta_arg_of_pericenter": 92.8078,
        "meta_mean_anomaly": 267.4426,
        "meta_ephemeris_type": 0,
        "meta_classification_type": "U",
        "meta_norad_cat_id": 36483,
        "meta_element_set_no": 999,
        "meta_rev_at_epoch": 65321,
        "meta_bstar": 0.0005014,
        "meta_mean_motion_dot": 1.8e-05,
        "meta_mean_motion_ddot": 0,
        "tle_line1": "1 36483U 97051VZ  25358.87104465  .00001800  00000+0  50140-3 0  9995",
        "tle_line2": "2 36483  86.3782  47.2957 0011373  92.8078 267.4426 14.45850229653211"
      },
      "geometry": {
        "type": "Point",
        "coordinates": [
          27.711474683163285,
          -79.13311176937727
        ]
      }
    },
    {
      "type": "Feature",
      "properties": {
        "norad_id": 36490,
        "name": "IRIDIUM 33 DEB",
        "group": "iridium-33-debris",
        "lat": 31.141888099149206,
        "lon": -177.54785981412343,
        "alt_km": 639.2950614492693,
        "timestamp": "2025-12-25T14:48:25.158424+00:00",
        "meta_object_name": "IRIDIUM 33 DEB",
        "meta_object_id": "1997-051WG",
        "meta_epoch": "2025-12-23T18:13:03.957312",
        "meta_mean_motion": 14.76410999,
        "meta_eccentricity": 0.00050592,
        "meta_inclination": 86.3652,
        "meta_ra_of_asc_node": 5.4915,
        "meta_arg_of_pericenter": 59.5237,
        "meta_mean_anomaly": 300.6482,
        "meta_ephemeris_type": 0,
        "meta_classification_type": "U",
        "meta_norad_cat_id": 36490,
        "meta_element_set_no": 999,
        "meta_rev_at_epoch": 86647,
        "meta_bstar": 0.0016428856,
        "meta_mean_motion_dot": 0.00011451,
        "meta_mean_motion_ddot": 0,
        "tle_line1": "1 36490U 97051WG  25357.75907358  .00011451  00000+0  16429-2 0  9995",
        "tle_line2": "2 36490  86.3652   5.4915 0005059  59.5237 300.6482 14.76410999866472"
      },
      "geometry": {
        "type": "Point",
        "coordinates": [
          -177.54785981412343,
          31.141888099149206
        ]
      }
    },
    {
      "type": "Feature",
      "properties": {
        "norad_id": 36493,
        "name": "IRIDIUM 33 DEB",
        "group": "iridium-33-debris",
        "lat": -77.91947483077021,
        "lon": -11.360893706956652,
        "alt_km": 678.1872149747169,
        "timestamp": "2025-12-25T14:48:25.158433+00:00",
        "meta_object_name": "IRIDIUM 33 DEB",
        "meta_object_id": "1997-051WK",
        "meta_epoch": "2025-12-23T07:26:33.103968",
        "meta_mean_motion": 14.65359392,
        "meta_eccentricity": 0.00090124,
        "meta_inclination": 86.3569,
        "meta_ra_of_asc_node": 6.9826,
        "meta_arg_of_pericenter": 326.7527,
        "meta_mean_anomaly": 33.3119,
        "meta_ephemeris_type": 0,
        "meta_classification_type": "U",
        "meta_norad_cat_id": 36493,
        "meta_element_set_no": 999,
        "meta_rev_at_epoch": 74673,
        "meta_bstar": 0.0013164613,
        "meta_mean_motion_dot": 7.136e-05,
        "meta_mean_motion_ddot": 0,
        "tle_line1": "1 36493U 97051WK  25357.31010537  .00007136  00000+0  13165-2 0  9993",
        "tle_line2": "2 36493  86.3569   6.9826 0009012 326.7527  33.3119 14.65359392746733"
      },
      "geometry": {
        "type": "Point",
        "coordinates": [
          -11.360893706956652,
          -77.91947483077021
        ]
      }
    },
    {
      "type": "Feature",
      "properties": {
        "norad_id": 37548,
        "name": "IRIDIUM 33 DEB",
        "group": "iridium-33-debris",
        "lat": -2.4941838667593075,
        "lon": -142.0742703697633,
        "alt_km": 709.8220756420233,
        "timestamp": "2025-12-25T14:48:25.158442+00:00",
        "meta_object_name": "IRIDIUM 33 DEB",
        "meta_object_id": "1997-051XH",
        "meta_epoch": "2025-12-15T20:39:30.861504",
        "meta_mean_motion": 14.51326297,
        "meta_eccentricity": 0.00258157,
        "meta_inclination": 86.3522,
        "meta_ra_of_asc_node": 42.0105,
        "meta_arg_of_pericenter": 178.4192,
        "meta_mean_anomaly": 181.71,
        "meta_ephemeris_type": 0,
        "meta_classification_type": "U",
        "meta_norad_cat_id": 37548,
        "meta_element_set_no": 999,
        "meta_rev_at_epoch": 65577,
        "meta_bstar": 0.00067405053,
        "meta_mean_motion_dot": 2.715e-05,
        "meta_mean_motion_ddot": 0,
        "tle_line1": "1 37548U 97051XH  25349.86077386  .00002715  00000+0  67405-3 0  9996",
        "tle_line2": "2 37548  86.3522  42.0105 0025815 178.4192 181.7100 14.51326297655778"
      },
      "geometry": {
        "type": "Point",
        "coordinates": [
          -142.0742703697633,
          -2.4941838667593075
        ]
      }
    },
    {
      "type": "Feature",
      "properties": {
        "norad_id": 37550,
        "name": "IRIDIUM 33 DEB",
        "group": "iridium-33-debris",
        "lat": -56.25024800537271,
        "lon": -156.3921945515215,
        "alt_km": 680.2070483432753,
        "timestamp": "2025-12-25T14:48:25.158451+00:00",
        "meta_object_name": "IRIDIUM 33 DEB",
        "meta_object_id": "1997-051XK",
        "meta_epoch": "2025-12-23T19:10:49.593504",
        "meta_mean_motion": 14.67349531,
        "meta_eccentricity": 0.00055645,
        "meta_inclination": 86.3769,
        "meta_ra_of_asc_node": 18.9721,
        "meta_arg_of_pericenter": 86.6044,
        "meta_mean_anomaly": 273.5807,
        "meta_ephemeris_type": 0,
        "meta_classification_type": "U",
        "meta_norad_cat_id": 37550,
        "meta_element_set_no": 999,
        "meta_rev_at_epoch": 86495,
        "meta_bstar": 0.0012621421,
        "meta_mean_motion_dot": 7.151e-05,
        "meta_mean_motion_ddot": 0,
        "tle_line1": "1 37550U 97051XK  25357.79918511  .00007151  00000+0  12621-2 0  9992",
        "tle_line2": "2 37550  86.3769  18.9721 0005564  86.6044 273.5807 14.67349531864954"
      },
      "geometry": {
        "type": "Point",
        "coordinates": [
          -156.3921945515215,
          -56.25024800537271
        ]
      }
    },
    {
      "type": "Feature",
      "properties": {
        "norad_id": 37562,
        "name": "IRIDIUM 33 DEB",
        "group": "iridium-33-debris",
        "lat": -53.40169712799182,
        "lon": 33.08461991531894,
        "alt_km": 720.7644187685755,
        "timestamp": "2025-12-25T14:48:25.158460+00:00",
        "meta_object_name": "IRIDIUM 33 DEB",
        "meta_object_id": "1997-051XX",
        "meta_epoch": "2025-12-24T09:26:56.500800",
        "meta_mean_motion": 14.56572659,
        "meta_eccentricity": 0.0026339,
        "meta_inclination": 86.3729,
        "meta_ra_of_asc_node": 38.5181,
        "meta_arg_of_pericenter": 71.2169,
        "meta_mean_anomaly": 305.3753,
        "meta_ephemeris_type": 0,
        "meta_classification_type": "U",
        "meta_norad_cat_id": 37562,
        "meta_element_set_no": 999,
        "meta_rev_at_epoch": 86498,
        "meta_bstar": 0.0010617703,
        "meta_mean_motion_dot": 4.771e-05,
        "meta_mean_motion_ddot": 0,
        "tle_line1": "1 37562U 97051XX  25358.39370950  .00004771  00000+0  10618-2 0  9990",
        "tle_line2": "2 37562  86.3729  38.5181 0026339  71.2169 305.3753 14.56572659864986"
      },
      "geometry": {
        "type": "Point",
        "coordinates": [
          33.08461991531894,
          -53.40169712799182
        ]
      }
    }
  ]
}